{
    "links": {
        "self": "http://www.neowsapp.com/rest/v1/neo/54054602?api_key=iIulBulltgU6a56xZRHN4H3l9WmuAYTsLGpBGhQ2"
    },
    "id": "54054602",
    "neo_reference_id": "54054602",
    "name": "(2020 SC4)",
    "designation": "2020 SC4",
    "nasa_jpl_url": "http://ssd.jpl.nasa.gov/sbdb.cgi?sstr=54054602",
    "absolute_magnitude_h": 26.623,
    "estimated_diameter": {
        "kilometers": {
            "estimated_diameter_min": 0.0125879491,
            "estimated_diameter_max": 0.0281475098
        },
        "meters": {
            "estimated_diameter_min": 12.5879490552,
            "estimated_diameter_max": 28.1475097847
        },
        "miles": {
            "estimated_diameter_min": 0.0078217865,
            "estimated_diameter_max": 0.0174900463
        },
        "feet": {
            "estimated_diameter_min": 41.2990467782,
            "estimated_diameter_max": 92.3474760019
        }
    },
    "is_potentially_hazardous_asteroid": false,
    "close_approach_data": [
        {
            "close_approach_date": "2020-09-24",
            "close_approach_date_full": "2020-Sep-24 04:45",
            "epoch_date_close_approach": 1600922700000,
            "relative_velocity": {
                "kilometers_per_second": "7.4287710901",
                "kilometers_per_hour": "26743.5759243952",
                "miles_per_hour": "16617.4180514666"
            },
            "miss_distance": {
                "astronomical": "0.0388470236",
                "lunar": "15.1114921804",
                "kilometers": "5811431.986399732",
                "miles": "3611056.3894390216"
            },
            "orbiting_body": "Earth"
        },
        {
            "close_approach_date": "2075-12-01",
            "close_approach_date_full": "2075-Dec-01 00:09",
            "epoch_date_close_approach": 3342384540000,
            "relative_velocity": {
                "kilometers_per_second": "3.430875765",
                "kilometers_per_hour": "12351.1527541192",
                "miles_per_hour": "7674.5259988026"
            },
            "miss_distance": {
                "astronomical": "1.3960846503",
                "lunar": "543.0769289667",
                "kilometers": "208851290.024574861",
                "miles": "129774173.9128646418"
            },
            "orbiting_body": "Juptr"
        }
    ],
    "orbital_data": {
        "orbit_id": "3",
        "orbit_determination_date": "2020-10-11 07:10:27",
        "first_observation_date": "2020-09-13",
        "last_observation_date": "2020-09-27",
        "data_arc_in_days": 14,
        "observations_used": 24,
        "orbit_uncertainty": "8",
        "minimum_orbit_intersection": ".0388347",
        "jupiter_tisserand_invariant": "3.153",
        "epoch_osculation": "2459111.5",
        "eccentricity": ".5945944390372352",
        "semi_major_axis": "2.569323005478818",
        "inclination": "3.471779544583793",
        "ascending_node_longitude": "1.852314807896862",
        "orbital_period": "1504.272392822286",
        "perihelion_distance": "1.041617834330677",
        "perihelion_argument": "1.927052940991695",
        "aphelion_distance": "4.097028176626959",
        "perihelion_time": "2459118.762676423168",
        "mean_anomaly": "358.2619081990629",
        "mean_motion": ".2393183586415325",
        "equinox": "J2000",
        "orbit_class": {
            "orbit_class_type": "AMO",
            "orbit_class_description": "Near-Earth asteroid orbits similar to that of 1221 Amor",
            "orbit_class_range": "1.017 AU < q (perihelion) < 1.3 AU"
        }
    },
    "is_sentry_object": false
}